{"type": "FeatureCollection", "features": [ {"type": "Feature", "properties": {"norad_id": 38487, "name": "COSMOS 2251 DEB", "group": "cosmos-2251-debris", "lat": -68.34014174603871, "lon": -83.06212653216059, "alt_km": 510.2335715780773, "timestamp": "2025-12-04T17:48:40.563160+00:00", "meta": {"OBJECT_NAME": "COSMOS 2251 DEB", "OBJECT_ID": "1993-036BTX", "EPOCH": "2025-12-03T21:41:13.895520", "MEAN_MOTION": 15.16226661, "ECCENTRICITY": 0.00230827, "INCLINATION": 73.974, "RA_OF_ASC_NODE": 52.3246, "ARG_OF_PERICENTER": 225.1872, "MEAN_ANOMALY": 134.7448, "EPHEMERIS_TYPE": 0, "CLASSIFICATION_TYPE": "U", "NORAD_CAT_ID": 38487, "ELEMENT_SET_NO": 999, "REV_AT_EPOCH": 66666, "BSTAR": 0.0042718994, "MEAN_MOTION_DOT": 0.0008408, "MEAN_MOTION_DDOT": 0}, "tle": {"line1": "1 38487U 93036BTX 25337.90363305  .00084080  00000+0  42719-2 0  9994", "line2": "2 38487  73.9740  52.3246 0023082 225.1872 134.7448 15.16226661666663"}}, "geometry": {"type": "Point", "coordinates": [-83.06212653216059, -68.34014174603871]}}, {"type": "Feature", "properties": {"norad_id": 39109, "name": "COSMOS 2251 DEB", "group": "cosmos-2251-debris", "lat": 67.93575317573763, "lon": -74.49322574810712, "alt_km": 650.4603923199002, "timestamp": "2025-12-04T17:48:40.563171+00:00", "meta": {"OBJECT_NAME": "COSMOS 2251 DEB", "OBJECT_ID": "1993-036BTY", "EPOCH": "2025-11-13T05:50:34.179360", "MEAN_MOTION": 14.70365272, "ECCENTRICITY": 0.0058425, "INCLINATION": 74.0424, "RA_OF_ASC_NODE": 282.2926, "ARG_OF_PERICENTER": 32.7567, "MEAN_ANOMALY": 29.6254, "EPHEMERIS_TYPE": 0, "CLASSIFICATION_TYPE": "U", "NORAD_CAT_ID": 39109, "ELEMENT_SET_NO": 999, "REV_AT_EPOCH": 64740, "BSTAR": 0.0018778, "MEAN_MOTION_DOT": 0.00011647, "MEAN_MOTION_DDOT": 0}, "tle": {"line1": "1 39109U 93036BTY 25317.24345115  .00011647  00000+0  18778-2 0  9997", "line2": "2 39109  74.0424 282.2926 0058425  32.7567  29.6254 14.70365272647406"}}, "geometry": {"type": "Point", "coordinates": [-74.49322574810712, 67.93575317573763]}}, {"type": "Feature", "properties": {"norad_id": 39110, "name": "COSMOS 2251 DEB", "group": "cosmos-2251-debris", "lat": -19.131877834238583, "lon": -97.13200355866121, "alt_km": 682.7667820511369, "timestamp": "2025-12-04T17:48:40.563180+00:00", "meta": {"OBJECT_NAME": "COSMOS 2251 DEB", "OBJECT_ID": "1993-036BTZ", "EPOCH": "2025-12-03T13:14:13.055136", "MEAN_MOTION": 14.72215365, "ECCENTRICITY": 0.00964609, "INCLINATION": 73.9598, "RA_OF_ASC_NODE": 79.4668, "ARG_OF_PERICENTER": 313.6965, "MEAN_ANOMALY": 59.6182, "EPHEMERIS_TYPE": 0, "CLASSIFICATION_TYPE": "U", "NORAD_CAT_ID": 39110, "ELEMENT_SET_NO": 999, "REV_AT_EPOCH": 62349, "BSTAR": 0.00066560445, "MEAN_MOTION_DOT": 4.484e-05, "MEAN_MOTION_DDOT": 0}, "tle": {"line1": "1 39110U 93036BTZ 25337.55153999  .00004484  00000+0  66560-3 0  9996", "line2": "2 39110  73.9598  79.4668 0096460 313.6965  59.6182 14.72215365623496"}}, "geometry": {"type": "Point", "coordinates": [-97.13200355866121, -19.131877834238583]}}, {"type": "Feature", "properties": {"norad_id": 39111, "name": "COSMOS 2251 DEB", "group": "cosmos-2251-debris", "lat": 40.42030473877439, "lon": 71.90128512068553, "alt_km": 518.6618131357309, "timestamp": "2025-12-04T17:48:40.563191+00:00", "meta": {"OBJECT_NAME": "COSMOS 2251 DEB", "OBJECT_ID": "1993-036BUA", "EPOCH": "2025-11-17T15:40:41.824704", "MEAN_MOTION": 15.09497671, "ECCENTRICITY": 0.00084083, "INCLINATION": 74.0067, "RA_OF_ASC_NODE": 93.139, "ARG_OF_PERICENTER": 94.0367, "MEAN_ANOMALY": 266.1786, "EPHEMERIS_TYPE": 0, "CLASSIFICATION_TYPE": "U", "NORAD_CAT_ID": 39111, "ELEMENT_SET_NO": 999, "REV_AT_EPOCH": 8766, "BSTAR": 0.0056310804, "MEAN_MOTION_DOT": 0.00091468, "MEAN_MOTION_DDOT": 0}, "tle": {"line1": "1 39111U 93036BUA 25321.65326186  .00091468  00000+0  56311-2 0  9991", "line2": "2 39111  74.0067  93.1390 0008408  94.0367 266.1786 15.09497671 87667"}}, "geometry": {"type": "Point", "coordinates": [71.90128512068553, 40.42030473877439]}}, {"type": "Feature", "properties": {"norad_id": 39546, "name": "COSMOS 2251 DEB", "group": "cosmos-2251-debris", "lat": 39.690367064012165, "lon": 166.6626808328911, "alt_km": 588.1548839506013, "timestamp": "2025-12-04T17:48:40.563201+00:00", "meta": {"OBJECT_NAME": "COSMOS 2251 DEB", "OBJECT_ID": "1993-036BUC", "EPOCH": "2025-12-01T05:55:26.467104", "MEAN_MOTION": 14.91578832, "ECCENTRICITY": 0.0043624, "INCLINATION": 73.9966, "RA_OF_ASC_NODE": 159.9082, "ARG_OF_PERICENTER": 321.5487, "MEAN_ANOMALY": 38.2588, "EPHEMERIS_TYPE": 0, "CLASSIFICATION_TYPE": "U", "NORAD_CAT_ID": 39546, "ELEMENT_SET_NO": 999, "REV_AT_EPOCH": 64265, "BSTAR": 0.0014755, "MEAN_MOTION_DOT": 0.00015069, "MEAN_MOTION_DDOT": 0}, "tle": {"line1": "1 39546U 93036BUC 25335.24683411  .00015069  00000+0  14755-2 0  9999", "line2": "2 39546  73.9966 159.9082 0043624 321.5487  38.2588 14.91578832642657"}}, "geometry": {"type": "Point", "coordinates": [166.6626808328911, 39.690367064012165]}}, {"type": "Feature", "properties": {"norad_id": 39547, "name": "COSMOS 2251 DEB", "group": "cosmos-2251-debris", "lat": 68.01525203839944, "lon": 80.02835514899273, "alt_km": 550.3993378328705, "timestamp": "2025-12-04T17:48:40.563211+00:00", "meta": {"OBJECT_NAME": "COSMOS 2251 DEB", "OBJECT_ID": "1993-036BUD", "EPOCH": "2025-12-03T13:00:45.154656", "MEAN_MOTION": 15.02302786, "ECCENTRICITY": 0.00042429, "INCLINATION": 74.0034, "RA_OF_ASC_NODE": 37.1966, "ARG_OF_PERICENTER": 32.7334, "MEAN_ANOMALY": 34.8564, "EPHEMERIS_TYPE": 0, "CLASSIFICATION_TYPE": "U", "NORAD_CAT_ID": 39547, "ELEMENT_SET_NO": 999, "REV_AT_EPOCH": 63887, "BSTAR": 0.0034470262, "MEAN_MOTION_DOT": 0.00045816, "MEAN_MOTION_DDOT": 0}, "tle": {"line1": "1 39547U 93036BUD 25337.54218929  .00045816  00000+0  34470-2 0  9992", "line2": "2 39547  74.0034  37.1966 0004242  32.7334  34.8564 15.02302786638870"}}, "geometry": {"type": "Point", "coordinates": [80.02835514899273, 68.01525203839944]}}, {"type": "Feature", "properties": {"norad_id": 39553, "name": "COSMOS 2251 DEB", "group": "cosmos-2251-debris", "lat": -33.73387900855733, "lon": -27.156310527856537, "alt_km": 1034.5240489284242, "timestamp": "2025-12-04T17:48:40.563221+00:00", "meta": {"OBJECT_NAME": "COSMOS 2251 DEB", "OBJECT_ID": "1993-036BUK", "EPOCH": "2025-12-01T17:56:57.014304", "MEAN_MOTION": 13.99866529, "ECCENTRICITY": 0.02013394, "INCLINATION": 74.0297, "RA_OF_ASC_NODE": 349.0518, "ARG_OF_PERICENTER": 127.8246, "MEAN_ANOMALY": 234.1304, "EPHEMERIS_TYPE": 0, "CLASSIFICATION_TYPE": "U", "NORAD_CAT_ID": 39553, "ELEMENT_SET_NO": 999, "REV_AT_EPOCH": 75463, "BSTAR": 0.00053939206, "MEAN_MOTION_DOT": 9.2e-06, "MEAN_MOTION_DDOT": 0}, "tle": {"line1": "1 39553U 93036BUK 25335.74788211  .00000920  00000+0  53939-3 0  9994", "line2": "2 39553  74.0297 349.0518 0201339 127.8246 234.1304 13.99866529754634"}}, "geometry": {"type": "Point", "coordinates": [-27.156310527856537, -33.73387900855733]}}, {"type": "Feature", "properties": {"norad_id": 39554, "name": "COSMOS 2251 DEB", "group": "cosmos-2251-debris", "lat": 62.58741627527865, "lon": -45.317786613060484, "alt_km": 531.1553206280896, "timestamp": "2025-12-04T17:48:40.563231+00:00", "meta": {"OBJECT_NAME": "COSMOS 2251 DEB", "OBJECT_ID": "1993-036BUL", "EPOCH": "2025-11-30T15:36:56.637792", "MEAN_MOTION": 15.08660873, "ECCENTRICITY": 0.0002133, "INCLINATION": 74.0183, "RA_OF_ASC_NODE": 289.5718, "ARG_OF_PERICENTER": 61.0833, "MEAN_ANOMALY": 111.3721, "EPHEMERIS_TYPE": 0, "CLASSIFICATION_TYPE": "U", "NORAD_CAT_ID": 39554, "ELEMENT_SET_NO": 999, "REV_AT_EPOCH": 64202, "BSTAR": 0.0031443, "MEAN_MOTION_DOT": 0.00049575, "MEAN_MOTION_DDOT": 0}, "tle": {"line1": "1 39554U 93036BUL 25334.65065553  .00049575  00000+0  31443-2 0  9995", "line2": "2 39554  74.0183 289.5718 0002133  61.0833 111.3721 15.08660873642025"}}, "geometry": {"type": "Point", "coordinates": [-45.317786613060484, 62.58741627527865]}}, {"type": "Feature", "properties": {"norad_id": 39583, "name": "COSMOS 2251 DEB", "group": "cosmos-2251-debris", "lat": 72.38650892765139, "lon": 17.40931756774581, "alt_km": 666.9901229065144, "timestamp": "2025-12-04T17:48:40.563241+00:00", "meta": {"OBJECT_NAME": "COSMOS 2251 DEB", "OBJECT_ID": "1993-036BUN", "EPOCH": "2025-12-03T11:46:41.592288", "MEAN_MOTION": 14.60101482, "ECCENTRICITY": 0.01362926, "INCLINATION": 73.9344, "RA_OF_ASC_NODE": 265.002, "ARG_OF_PERICENTER": 20.2137, "MEAN_ANOMALY": 340.435, "EPHEMERIS_TYPE": 0, "CLASSIFICATION_TYPE": "U", "NORAD_CAT_ID": 39583, "ELEMENT_SET_NO": 999, "REV_AT_EPOCH": 61644, "BSTAR": 0.0029015409, "MEAN_MOTION_DOT": 0.00015908, "MEAN_MOTION_DDOT": 0}, "tle": {"line1": "1 39583U 93036BUN 25337.49075917  .00015908  00000+0  29015-2 0  9992", "line2": "2 39583  73.9344 265.0020 0136292  20.2137 340.4350 14.60101482616440"}}, "geometry": {"type": "Point", "coordinates": [17.40931756774581, 72.38650892765139]}}, {"type": "Feature", "properties": {"norad_id": 39585, "name": "COSMOS 2251 DEB", "group": "cosmos-2251-debris", "lat": -30.679564318077496, "lon": -53.23012096267983, "alt_km": 720.3041062806888, "timestamp": "2025-12-04T17:48:40.563252+00:00", "meta": {"OBJECT_NAME": "COSMOS 2251 DEB", "OBJECT_ID": "1993-036BUQ", "EPOCH": "2025-11-29T06:16:21.203328", "MEAN_MOTION": 14.58611374, "ECCENTRICITY": 0.00652828, "INCLINATION": 74.0406, "RA_OF_ASC_NODE": 326.9733, "ARG_OF_PERICENTER": 91.8532, "MEAN_ANOMALY": 269.0111, "EPHEMERIS_TYPE": 0, "CLASSIFICATION_TYPE": "U", "NORAD_CAT_ID": 39585, "ELEMENT_SET_NO": 999, "REV_AT_EPOCH": 62324, "BSTAR": 0.00023928135, "MEAN_MOTION_DOT": 1.117e-05, "MEAN_MOTION_DDOT": 0}, "tle": {"line1": "1 39585U 93036BUQ 25333.26135652  .00001117  00000+0  23928-3 0  9993", "line2": "2 39585  74.0406 326.9733 0065282  91.8532 269.0111 14.58611374623244"}}, "geometry": {"type": "Point", "coordinates": [-53.23012096267983, -30.679564318077496]}}]}